KUIPER-00016            
1 63732U 25088J   25358.61685867  .00003819  00000+0  52912-3 0  9996
2 63732  51.9015  83.5680 0013041 175.0856 185.0237 14.79948641 36216
KUIPER-00018            
1 63733U 25088K   25358.62928675  .00006184  00000+0  83799-3 0  9990
2 63733  51.9020  72.4686 0013131 199.1881 160.8589 14.79964770 36370
KUIPER-00019            
1 63734U 25088L   25358.63037163  .00004194  00000+0  57904-3 0  9993
2 63734  51.9000  71.0091 0008748 209.0706 150.9770 14.79909007 36395
KUIPER-00020            
1 63735U 25088M   25357.95125899  .00001978  00000+0  28835-3 0  9990
2 63735  51.9015  77.9945 0008680 186.6628 173.4220 14.79958973 36445
KUIPER-00021            
1 63736U 25088N   25358.21972625  .00001654  00000+0  24575-3 0  9996
2 63736  51.9020  77.8063 0007016 183.6743 176.4169 14.79986320 36306
KUIPER-00023            
1 63737U 25088P   25358.21864929  .00004750  00000+0  65043-3 0  9999
2 63737  51.9005  79.2765 0011544 204.6483 155.3929 14.79993668 36584
KUIPER-00024            
1 63738U 25088Q   25358.63738572  .00022848  00000+0  30192-2 0  9994
2 63738  51.9034  64.9739 0001111 113.6762 246.4317 14.79885703 36940
KUIPER-00025            
1 63739U 25088R   25358.62780182  .00003757  00000+0  52086-3 0  9993
2 63739  51.9022  73.5309 0000728  31.9888 328.1119 14.79991199 36687
