<?xml version="1.0" encoding="UTF-8"?>
<ndm xmlns:xsi="http://www.w3.org/2001/XMLSchema-instance" xsi:noNamespaceSchemaLocation="https://sanaregistry.org/r/ndmxml_unqualified/ndmxml-2.0.0-master-2.0.xsd">
<omm id="CCSDS_OMM_VERS" version="2.0">
<header><CREATION_DATE/><ORIGINATOR/></header><body><segment><metadata><OBJECT_NAME>KUIPER-00016</OBJECT_NAME><OBJECT_ID>2025-088J</OBJECT_ID><CENTER_NAME>EARTH</CENTER_NAME><REF_FRAME>TEME</REF_FRAME><TIME_SYSTEM>UTC</TIME_SYSTEM><MEAN_ELEMENT_THEORY>SGP4</MEAN_ELEMENT_THEORY></metadata><data><meanElements><EPOCH>2025-12-24T14:48:16.589088</EPOCH><MEAN_MOTION>14.79948641</MEAN_MOTION><ECCENTRICITY>.0013041</ECCENTRICITY><INCLINATION>51.9015</INCLINATION><RA_OF_ASC_NODE>83.5680</RA_OF_ASC_NODE><ARG_OF_PERICENTER>175.0856</ARG_OF_PERICENTER><MEAN_ANOMALY>185.0237</MEAN_ANOMALY></meanElements><tleParameters><EPHEMERIS_TYPE>0</EPHEMERIS_TYPE><CLASSIFICATION_TYPE>U</CLASSIFICATION_TYPE><NORAD_CAT_ID>63732</NORAD_CAT_ID><ELEMENT_SET_NO>999</ELEMENT_SET_NO><REV_AT_EPOCH>3621</REV_AT_EPOCH><BSTAR>.52912E-3</BSTAR><MEAN_MOTION_DOT>.3819E-4</MEAN_MOTION_DOT><MEAN_MOTION_DDOT>0</MEAN_MOTION_DDOT></tleParameters></data></segment></body></omm>
<omm id="CCSDS_OMM_VERS" version="2.0">
<header><CREATION_DATE/><ORIGINATOR/></header><body><segment><metadata><OBJECT_NAME>KUIPER-00018</OBJECT_NAME><OBJECT_ID>2025-088K</OBJECT_ID><CENTER_NAME>EARTH</CENTER_NAME><REF_FRAME>TEME</REF_FRAME><TIME_SYSTEM>UTC</TIME_SYSTEM><MEAN_ELEMENT_THEORY>SGP4</MEAN_ELEMENT_THEORY></metadata><data><meanElements><EPOCH>2025-12-24T15:06:10.375200</EPOCH><MEAN_MOTION>14.79964770</MEAN_MOTION><ECCENTRICITY>.0013131</ECCENTRICITY><INCLINATION>51.9020</INCLINATION><RA_OF_ASC_NODE>72.4686</RA_OF_ASC_NODE><ARG_OF_PERICENTER>199.1881</ARG_OF_PERICENTER><MEAN_ANOMALY>160.8589</MEAN_ANOMALY></meanElements><tleParameters><EPHEMERIS_TYPE>0</EPHEMERIS_TYPE><CLASSIFICATION_TYPE>U</CLASSIFICATION_TYPE><NORAD_CAT_ID>63733</NORAD_CAT_ID><ELEMENT_SET_NO>999</ELEMENT_SET_NO><REV_AT_EPOCH>3637</REV_AT_EPOCH><BSTAR>.83799E-3</BSTAR><MEAN_MOTION_DOT>.6184E-4</MEAN_MOTION_DOT><MEAN_MOTION_DDOT>0</MEAN_MOTION_DDOT></tleParameters></data></segment></body></omm>
<omm id="CCSDS_OMM_VERS" version="2.0">
<header><CREATION_DATE/><ORIGINATOR/></header><body><segment><metadata><OBJECT_NAME>KUIPER-00019</OBJECT_NAME><OBJECT_ID>2025-088L</OBJECT_ID><CENTER_NAME>EARTH</CENTER_NAME><REF_FRAME>TEME</REF_FRAME><TIME_SYSTEM>UTC</TIME_SYSTEM><MEAN_ELEMENT_THEORY>SGP4</MEAN_ELEMENT_THEORY></metadata><data><meanElements><EPOCH>2025-12-24T15:07:44.108832</EPOCH><MEAN_MOTION>14.79909007</MEAN_MOTION><ECCENTRICITY>.0008748</ECCENTRICITY><INCLINATION>51.9000</INCLINATION><RA_OF_ASC_NODE>71.0091</RA_OF_ASC_NODE><ARG_OF_PERICENTER>209.0706</ARG_OF_PERICENTER><MEAN_ANOMALY>150.9770</MEAN_ANOMALY></meanElements><tleParameters><EPHEMERIS_TYPE>0</EPHEMERIS_TYPE><CLASSIFICATION_TYPE>U</CLASSIFICATION_TYPE><NORAD_CAT_ID>63734</NORAD_CAT_ID><ELEMENT_SET_NO>999</ELEMENT_SET_NO><REV_AT_EPOCH>3639</REV_AT_EPOCH><BSTAR>.57904E-3</BSTAR><MEAN_MOTION_DOT>.4194E-4</MEAN_MOTION_DOT><MEAN_MOTION_DDOT>0</MEAN_MOTION_DDOT></tleParameters></data></segment></body></omm>
<omm id="CCSDS_OMM_VERS" version="2.0">
<header><CREATION_DATE/><ORIGINATOR/></header><body><segment><metadata><OBJECT_NAME>KUIPER-00020</OBJECT_NAME><OBJECT_ID>2025-088M</OBJECT_ID><CENTER_NAME>EARTH</CENTER_NAME><REF_FRAME>TEME</REF_FRAME><TIME_SYSTEM>UTC</TIME_SYSTEM><MEAN_ELEMENT_THEORY>SGP4</MEAN_ELEMENT_THEORY></metadata><data><meanElements><EPOCH>2025-12-23T22:49:48.776736</EPOCH><MEAN_MOTION>14.79958973</MEAN_MOTION><ECCENTRICITY>.000868</ECCENTRICITY><INCLINATION>51.9015</INCLINATION><RA_OF_ASC_NODE>77.9945</RA_OF_ASC_NODE><ARG_OF_PERICENTER>186.6628</ARG_OF_PERICENTER><MEAN_ANOMALY>173.4220</MEAN_ANOMALY></meanElements><tleParameters><EPHEMERIS_TYPE>0</EPHEMERIS_TYPE><CLASSIFICATION_TYPE>U</CLASSIFICATION_TYPE><NORAD_CAT_ID>63735</NORAD_CAT_ID><ELEMENT_SET_NO>999</ELEMENT_SET_NO><REV_AT_EPOCH>3644</REV_AT_EPOCH><BSTAR>.28835E-3</BSTAR><MEAN_MOTION_DOT>.1978E-4</MEAN_MOTION_DOT><MEAN_MOTION_DDOT>0</MEAN_MOTION_DDOT></tleParameters></data></segment></body></omm>
<omm id="CCSDS_OMM_VERS" version="2.0">
<header><CREATION_DATE/><ORIGINATOR/></header><body><segment><metadata><OBJECT_NAME>KUIPER-00021</OBJECT_NAME><OBJECT_ID>2025-088N</OBJECT_ID><CENTER_NAME>EARTH</CENTER_NAME><REF_FRAME>TEME</REF_FRAME><TIME_SYSTEM>UTC</TIME_SYSTEM><MEAN_ELEMENT_THEORY>SGP4</MEAN_ELEMENT_THEORY></metadata><data><meanElements><EPOCH>2025-12-24T05:16:24.348000</EPOCH><MEAN_MOTION>14.79986320</MEAN_MOTION><ECCENTRICITY>.00070163</ECCENTRICITY><INCLINATION>51.9020</INCLINATION><RA_OF_ASC_NODE>77.8063</RA_OF_ASC_NODE><ARG_OF_PERICENTER>183.6743</ARG_OF_PERICENTER><MEAN_ANOMALY>176.4169</MEAN_ANOMALY></meanElements><tleParameters><EPHEMERIS_TYPE>0</EPHEMERIS_TYPE><CLASSIFICATION_TYPE>U</CLASSIFICATION_TYPE><NORAD_CAT_ID>63736</NORAD_CAT_ID><ELEMENT_SET_NO>999</ELEMENT_SET_NO><REV_AT_EPOCH>3630</REV_AT_EPOCH><BSTAR>.24574743E-3</BSTAR><MEAN_MOTION_DOT>.1654E-4</MEAN_MOTION_DOT><MEAN_MOTION_DDOT>0</MEAN_MOTION_DDOT></tleParameters></data></segment></body></omm>
<omm id="CCSDS_OMM_VERS" version="2.0">
<header><CREATION_DATE/><ORIGINATOR/></header><body><segment><metadata><OBJECT_NAME>KUIPER-00023</OBJECT_NAME><OBJECT_ID>2025-088P</OBJECT_ID><CENTER_NAME>EARTH</CENTER_NAME><REF_FRAME>TEME</REF_FRAME><TIME_SYSTEM>UTC</TIME_SYSTEM><MEAN_ELEMENT_THEORY>SGP4</MEAN_ELEMENT_THEORY></metadata><data><meanElements><EPOCH>2025-12-24T05:14:51.298656</EPOCH><MEAN_MOTION>14.79993668</MEAN_MOTION><ECCENTRICITY>.0011544</ECCENTRICITY><INCLINATION>51.9005</INCLINATION><RA_OF_ASC_NODE>79.2765</RA_OF_ASC_NODE><ARG_OF_PERICENTER>204.6483</ARG_OF_PERICENTER><MEAN_ANOMALY>155.3929</MEAN_ANOMALY></meanElements><tleParameters><EPHEMERIS_TYPE>0</EPHEMERIS_TYPE><CLASSIFICATION_TYPE>U</CLASSIFICATION_TYPE><NORAD_CAT_ID>63737</NORAD_CAT_ID><ELEMENT_SET_NO>999</ELEMENT_SET_NO><REV_AT_EPOCH>3658</REV_AT_EPOCH><BSTAR>.65043034E-3</BSTAR><MEAN_MOTION_DOT>.475E-4</MEAN_MOTION_DOT><MEAN_MOTION_DDOT>0</MEAN_MOTION_DDOT></tleParameters></data></segment></body></omm>
<omm id="CCSDS_OMM_VERS" version="2.0">
<header><CREATION_DATE/><ORIGINATOR/></header><body><segment><metadata><OBJECT_NAME>KUIPER-00024</OBJECT_NAME><OBJECT_ID>2025-088Q</OBJECT_ID><CENTER_NAME>EARTH</CENTER_NAME><REF_FRAME>TEME</REF_FRAME><TIME_SYSTEM>UTC</TIME_SYSTEM><MEAN_ELEMENT_THEORY>SGP4</MEAN_ELEMENT_THEORY></metadata><data><meanElements><EPOCH>2025-12-24T15:17:50.126208</EPOCH><MEAN_MOTION>14.79885703</MEAN_MOTION><ECCENTRICITY>.0001111</ECCENTRICITY><INCLINATION>51.9034</INCLINATION><RA_OF_ASC_NODE>64.9739</RA_OF_ASC_NODE><ARG_OF_PERICENTER>113.6762</ARG_OF_PERICENTER><MEAN_ANOMALY>246.4317</MEAN_ANOMALY></meanElements><tleParameters><EPHEMERIS_TYPE>0</EPHEMERIS_TYPE><CLASSIFICATION_TYPE>U</CLASSIFICATION_TYPE><NORAD_CAT_ID>63738</NORAD_CAT_ID><ELEMENT_SET_NO>999</ELEMENT_SET_NO><REV_AT_EPOCH>3694</REV_AT_EPOCH><BSTAR>.30192E-2</BSTAR><MEAN_MOTION_DOT>.22848E-3</MEAN_MOTION_DOT><MEAN_MOTION_DDOT>0</MEAN_MOTION_DDOT></tleParameters></data></segment></body></omm>
<omm id="CCSDS_OMM_VERS" version="2.0">
<header><CREATION_DATE/><ORIGINATOR/></header><body><segment><metadata><OBJECT_NAME>KUIPER-00025</OBJECT_NAME><OBJECT_ID>2025-088R</OBJECT_ID><CENTER_NAME>EARTH</CENTER_NAME><REF_FRAME>TEME</REF_FRAME><TIME_SYSTEM>UTC</TIME_SYSTEM><MEAN_ELEMENT_THEORY>SGP4</MEAN_ELEMENT_THEORY></metadata><data><meanElements><EPOCH>2025-12-24T15:04:02.077248</EPOCH><MEAN_MOTION>14.79991199</MEAN_MOTION><ECCENTRICITY>.0000728</ECCENTRICITY><INCLINATION>51.9022</INCLINATION><RA_OF_ASC_NODE>73.5309</RA_OF_ASC_NODE><ARG_OF_PERICENTER>31.9888</ARG_OF_PERICENTER><MEAN_ANOMALY>328.1119</MEAN_ANOMALY></meanElements><tleParameters><EPHEMERIS_TYPE>0</EPHEMERIS_TYPE><CLASSIFICATION_TYPE>U</CLASSIFICATION_TYPE><NORAD_CAT_ID>63739</NORAD_CAT_ID><ELEMENT_SET_NO>999</ELEMENT_SET_NO><REV_AT_EPOCH>3668</REV_AT_EPOCH><BSTAR>.52086E-3</BSTAR><MEAN_MOTION_DOT>.3757E-4</MEAN_MOTION_DOT><MEAN_MOTION_DDOT>0</MEAN_MOTION_DDOT></tleParameters></data></segment></body></omm>

</ndm>
